C/2024 G5 (Leonard),e,50.3870,316.3947,209.5737,562.7948,0.0000738,0.99475307,0.0000,09/07.0355/2024,2000,g 13.0,4.0
# From MPEC 2024-RQ6
C/2024 G6 (ATLAS),h,02/20.8172/2026,120.4566,250.9520,23.4470,1.002264,6.429534,2000,5.5,4.0
# From MPEC 2024-Q20
C/2024 G7 (ATLAS),h,02/10.1345/2025,131.5167,191.9591,289.6567,1.001915,6.027711,2000,7.0,4.0
# From MPEC 2024-Q05
A/2024 G8,e,97.4102,11.2481,249.1581,142.1053,0.0005818,0.99174942,0.0000,06/15.5922/2024,2000,g 20.0,2.0
# From MPEC 2024-JU4
P/2024 J1 (PANSTARRS),e,13.1587,321.9410,200.3574,3.808502,0.1326089,0.30767994,66.1369,03/24.0/2025,2000,g 14.5,4.0
# From MPEC 2025-DP4
C/2024 J2 (Wierzchos),e,79.2972,189.0592,143.1593,147.2172,0.0005518,0.98769921,0.0000,03/19.7829/2025,2000,g 11.5,4.0
# From MPEC 2025-EG2
C/2024 J3 (ATLAS),h,11/25.2979/2026,75.6392,285.9612,74.0896,1.000854,3.864986,2000,5.0,4.0
# From MPEC 2025-EG2
C/2024 J4 (Lemmon),e,117.5318,19.3033,127.8568,6323,0.0000020,0.99909934,0.0000,04/26.0030/2025,2000,g  8.0,4.0
# From MPEC 2024-LB4
P/2024 K1 (PANSTARRS),e,1.7862,251.6908,351.9345,6.845260,0.0550325,0.49517438,17.5565,03/24.0/2025,2000,g 13.5,4.0
# From MPEC 2024-RQ6
C/2024 L1 (PANSTARRS),e,99.1667,45.1408,171.8090,11.46324,0.0253947,0.53347203,359.2309,03/24.0/2025,2000,g 10.0,4.0
# From MPEC 2024-P23
C/2024 L2 (PANSTARRS),e,139.4879,266.2857,345.6264,470.2050,0.0000967,0.98229226,0.0000,06/12.9550/2025,2000,g  7.5,3.2
# From MPEC 2024-RQ6
C/2024 L3 (PANSTARRS),h,11/24.2604/2023,111.5925,294.9931,59.0814,1.004129,6.858053,2000,9.5,4.0
# From MPEC 2025-DN8
P/2024 L4 (Rankin),e,10.0470,139.7789,53.6973,2.228205,0.2963270,0.69843084,101.8479,03/24.0/2025,2000,g 21.5,4.0
# From MPEC 2025-EG2
C/2024 L5 (ATLAS),h,03/10.3970/2025,166.5732,139.1765,290.5144,1.037258,3.432401,2000,9.0,4.0
# From MPEC 2025-EG2
C/2024 M1 (ATLAS),e,73.7098,76.2150,345.5905,29.86995,0.0060374,0.94297630,0.7486,03/24.0/2025,2000,g 12.0,4.0
# From MPEC 2024-RQ6
C/2024 N1 (PANSTARRS),h,10/18.8971/2025,88.7764,323.0162,91.2546,1.000844,4.398125,2000,10.5,4.0
# From MPEC 2025-EG2
C/2024 N3 (Sarneczky),h,04/11.4069/2025,88.7289,82.6082,86.8814,1.001210,5.014562,2000,8.0,4.0
# From MPEC 2025-EG2
C/2024 N4 (Sarneczky),h,01/10.0511/2025,49.7721,339.6607,116.6874,1.004492,5.397682,2000,7.5,4.0
# From MPEC 2024-PC5
C/2024 O1 (PANSTARRS),h,01/28.6894/2023,59.0778,303.3399,349.9006,1.000839,6.607337,2000,8.5,4.0
# From MPEC 2024-UA9
P/2024 O2 (PANSTARRS),e,28.9761,6.8054,310.7881,7.383428,0.0491266,0.49919717,16.5956,03/24.0/2025,2000,g 12.0,4.0
# From MPEC 2025-A40
P/2024 OC2 (PANSTARRS),e,7.6713,136.6172,258.5379,2.625611,0.2316640,0.77420613,38.3815,03/24.0/2025,2000,g 20.5,4.0
# From MPEC 2025-EG2
C/2024 PN7 (PANSTARRS),e,101.2100,358.5837,74.2737,67.38258,0.0017819,0.97737480,0.0000,12/06.4382/2024,2000,g 15.2,4.0
# From MPEC 2024-UQ8
P/2024 Q1 (PANSTARRS),e,5.0143,23.1342,284.4493,3.518942,0.1493090,0.53485331,42.1677,03/24.0/2025,2000,g 17.0,4.0
# From MPEC 2024-TD8
C/2024 Q3 (PANSTARRS),h,03/05.2331/2025,121.3769,337.2862,70.1319,1.001397,2.091471,2000,15.0,4.0
# From MPEC 2025-EG2
C/2024 Q4 (PANSTARRS),e,3.3131,324.2890,133.0239,828.7037,0.0000413,0.99346100,0.0000,11/12.1584/2024,2000,g 10.0,4.0
# From MPEC 2024-TP3
P/2024 R1 (PANSTARRS),e,12.7366,84.9817,230.6241,3.452328,0.1536512,0.49302789,43.2153,03/24.0/2025,2000,g 18.0,4.0
# From MPEC 2025-CE3
P/2024 R2 (PANSTARRS),e,15.1159,193.0366,203.9675,3.149755,0.1763149,0.26865173,30.5233,03/24.0/2025,2000,g 15.5,4.0
# From MPEC 2024-YC7
P/2024 R3 (PANSTARRS),e,14.7256,33.2723,309.2023,3.199706,0.1722023,0.26696587,55.0907,03/24.0/2025,2000,g 15.0,4.0
# From MPEC 2024-YC7
C/2024 R4 (PANSTARRS),h,10/26.6246/2027,95.3573,345.9326,108.9854,1.002651,4.409578,2000,6.5,4.0
# From MPEC 2025-D44
C/2024 S1 (ATLAS),e,141.9380,347.2948,69.2848,87.43505,0.0012055,0.99990884,0.0000,10/28.4846/2024,2000,g 15.5,4.0
# From MPEC 2025-A40
P/2024 S2 (Rankin),e,7.5251,8.3453,49.1814,5.040804,0.0870872,0.59373722,16.4291,03/24.0/2025,2000,g 15.0,4.0
# From MPEC 2025-D44
P/2024 T1 (Rankin),e,17.6201,279.7104,164.8705,6.601991,0.0581021,0.65358515,10.1437,03/24.0/2025,2000,g 14.5,4.0
# From MPEC 2025-EB9
P/2024 T2 (Rankin),e,12.9289,113.0610,343.8290,6.173607,0.0642533,0.68052792,6.7891,03/24.0/2025,2000,g 16.0,4.0
# From MPEC 2025-CE3
C/2024 T3 (PANSTARRS),e,53.4834,74.8312,336.8899,84.34936,0.0012723,0.95594281,0.0111,03/24.0/2025,2000,g 11.5,4.0
# From MPEC 2025-CE3
C/2024 T5 (ATLAS),h,05/06.3234/2027,52.3871,100.6822,352.4269,1.001987,3.842592,2000,5.5,4.0
# From MPEC 2025-CE3
C/2024 U1 (PANSTARRS),e,128.7547,270.2634,188.0780,507.8928,0.0000861,0.99047832,0.0000,06/30.4563/2024,2000,g 10.0,4.0
# From MPEC 2025-EG2
A/2024 U2,h,01/14.1582/2026,120.6704,56.0697,29.7557,1.003318,8.181154,2000,12.1,2.0
# From MPEC 2025-EG2
C/2024 V1 (Borisov),e,54.6243,328.1946,168.6659,235.0120,0.0002736,0.99013468,0.0000,04/04.1080/2025,2000,g 14.8,4.0
# From MPEC 2024-YC7
C/2024 V2 (Sarneczky),e,95.9718,102.2019,13.7193,39.27433,0.0040044,0.96835125,0.5613,03/24.0/2025,2000,g 19.0,4.0
# From MPEC 2025-CE3
C/2024 W1 (PANSTARRS),e,83.2004,310.7277,256.7358,44.84038,0.0032825,0.94289280,0.0161,03/24.0/2025,2000,g 15.0,4.0
# From MPEC 2025-CE3
A/2024 W2,h,02/27.4806/2025,116.6302,241.9384,168.0141,1.003064,3.720725,2000,15.6,2.0
# From MPEC 2025-CE3
C/2024 X1 (Fazekas),e,6.4581,352.1441,124.2512,9.511394,0.0335999,0.59876174,355.5430,03/24.0/2025,2000,g 11.3,4.0
# From MPEC 2025-EG2
C/2024 X2 (ATLAS),e,109.2210,122.5231,315.7754,50.53945,0.0027432,0.92725786,359.7096,03/24.0/2025,2000,g  9.6,4.0
# From MPEC 2025-EG2
P/2024 X3 (PANSTARRS),e,2.9724,113.3649,352.9345,6.996849,0.0532538,0.62639443,10.6105,03/24.0/2025,2000,g 14.6,4.0
# From MPEC 2025-A40
C/2024 X4 (PANSTARRS),e,34.6690,258.9434,153.2862,10.05684,0.0309038,0.64155616,354.9969,03/24.0/2025,2000,g 12.6,4.0
# From MPEC 2025-CE3
C/2024 Y1 (Masek),e,64.7519,112.5445,238.1412,61.81732,0.0020279,0.98669701,0.0000,11/26.8600/2024,2000,g 17.6,4.0
# From MPEC 2025-CE3
A/2025 A1,h,03/12.1310/2027,33.4356,101.3295,68.0300,1.004054,5.344513,2000,9.0,4.0
# From MPEC 2025-EG2
P/2025 A2 (PANSTARRS),e,20.7334,189.3207,278.0614,5.084915,0.0859565,0.32222374,14.5472,03/24.0/2025,2000,g 13.2,4.0
# From MPEC 2025-EG2
C/2025 A3 (Tsuchinshan),e,9.9755,322.4323,222.2081,10.18840,0.0303071,0.43132702,349.2425,03/24.0/2025,2000,g  9.0,4.0
# From MPEC 2025-EB9
C/2025 A4 (PANSTARRS),e,32.0261,69.9071,102.8287,11.03992,0.0268692,0.65361348,1.8724,03/24.0/2025,2000,g 12.4,4.0
# From MPEC 2025-DP4
C/2025 A6 (Lemmon),e,143.6436,108.0966,132.9793,125.4603,0.0007014,0.99577955,0.0000,11/08.4996/2025,2000,g 13.2,4.0
# From MPEC 2025-EG2
A/2025 A7,e,133.6488,348.8437,195.5631,4199,0.0000036,0.99931329,0.0000,03/28.0946/2025,2000,g 14.9,2.0
# From MPEC 2025-D44
C/2025 B1 (PANSTARRS),h,06/26.8611/2025,39.6551,102.8453,23.5658,1.002062,3.529149,2000,12.0,4.0
# From MPEC 2025-DP4
C/2025 B2 (Borisov),h,09/11.5992/2026,91.7421,84.8639,78.8446,1.000785,8.238973,2000,6.2,4.0
# From MPEC 2025-EG2
P/2025 C1 (ATLAS),e,7.5197,9.1048,187.1582,4.181444,0.1152696,0.34332467,5.0720,03/24.0/2025,2000,g 10.8,4.0
# From MPEC 2025-DP4
C/2025 D1 (Groeller),h,05/19.6744/2028,84.4686,312.8968,185.8821,1.002920,14.119472,2000,1.2,4.0
# From MPEC 2025-EG2
P/2025 D2 (PANSTARRS),e,5.3342,256.7294,314.0622,8.917796,0.0370099,0.17813290,311.0274,03/24.0/2025,2000,g  8.2,4.0
# From MPEC 2025-EG2
P/2025 D3 (PANSTARRS),e,9.6442,186.6358,294.4583,3.966888,0.1247467,0.25245312,30.1034,03/24.0/2025,2000,g 14.7,4.0
# From MPEC 2025-EG2
P/2025 D4 (ATLAS),e,15.9409,233.1197,332.8886,8.899816,0.0371221,0.63426956,1.4003,03/24.0/2025,2000,g 13.2,4.0
# From MPEC 2025-E99
C/2025 D5 (PANSTARRS),e,73.3577,0.7353,211.4923,830.6637,0.0000412,0.99757804,0.0000,05/13.3015/2025,2000,g 17.6,4.0
# From MPEC 2025-F22
C/2025 D6 (ATLAS),e,145.7835,151.5020,285.3547,668.6664,0.0000570,0.99625695,0.0000,12/11.1879/2024,2000,g 13.2,4.0
# From MPEC 2025-EG2
C/2025 E1 (PANSTARRS),e,69.0731,344.6004,274.4607,2863,0.0000064,0.99860483,0.0000,09/23.4519/2026,2000,g  9.7,4.0
# From  98, 1083
1P/Halley,e,162.2122,59.6561,112.5663,17.86468,0.0130530,0.96728588,186.2472,03/24.0/2025,2000,g  4.0,6.0
# From MPEC 2024-TP3
2P/Encke,e,11.3433,334.0143,187.2798,2.218206,0.2983330,0.84709028,154.6648,03/24.0/2025,2000,g 11.5,6.0
# From  76, 1135
3D/Biela,e,7.8877,276.1871,192.2961,3.539220,0.1480276,0.76754663,346.0558,03/24.0/2025,2000,g 11.0,6.0
# From  76, 1135
3D-A/Biela,e,7.2156,276.6834,192.1238,3.550331,0.1473333,0.76711589,16.4833,03/24.0/2025,2000,g 11.0,6.0
# From  76, 1135
3D-B/Biela,e,7.8798,276.2018,192.2573,3.539950,0.1479818,0.76784455,345.7825,03/24.0/2025,2000,g 11.0,6.0
# From MPEC 2023-FK0
4P/Faye,e,8.0039,192.9143,207.1366,3.829736,0.1315076,0.57641422,169.8978,03/24.0/2025,2000,g  8.0,6.0
# From  27, 116
5D/Brorsen,e,18.6310,94.9066,20.3013,3.158408,0.1755908,0.83785712,124.0913,03/24.0/2025,2000,g 10.5,6.0
# From MPEC 2022-WD2
6P/d'Arrest,e,19.4989,138.9506,178.0589,3.497707,0.1506707,0.61187586,193.5343,03/24.0/2025,2000,g  7.5,16.0
# From MPEC 2023-A50
7P/Pons-Winnecke,e,22.5527,93.2721,172.4470,3.397921,0.1573563,0.64382257,219.5042,03/24.0/2025,2000,g 10.0,6.0
# From MPEC 2022-HC2
8P/Tuttle,e,54.9844,270.1770,207.4737,5.705132,0.0723279,0.82066841,94.2811,03/24.0/2025,2000,g  8.0,8.0
# From MPEC 2024-YC7
9P/Tempel,e,10.7354,67.3886,184.4103,3.278816,0.1660078,0.47683468,186.5790,03/24.0/2025,2000,g  5.5,10.0
# From MPEC 2025-EG2
10P/Tempel,e,12.0274,117.8011,195.4986,3.063652,0.1837998,0.53737661,268.8041,03/24.0/2025,2000,g  5.0,10.0
# From MPEC 2024-R10
11P/Tempel-Swift-LINEAR,e,14.4336,238.8641,168.0473,3.283275,0.1656697,0.57748846,261.2889,03/24.0/2025,2000,g 17.0,4.0
# From MPEC 2025-DP4
12P/Pons-Brooks,e,74.1914,255.8557,199.0025,17.21964,0.0137933,0.95464402,4.6465,03/24.0/2025,2000,g  5.0,6.0
# From MPEC 2025-EB9
13P/Olbers,e,44.6664,85.8467,64.4208,16.89737,0.0141898,0.93043539,3.7877,03/24.0/2025,2000,g  5.0,6.0
# From MPEC 2024-LE0
